NORAD_CAT_ID,OBJECT_NAME,OBJECT_TYPE,EPOCH,MEAN_MOTION,ECCENTRICITY,INCLINATION,RA_OF_ASC_NODE,ARG_OF_PERICENTER,MEAN_ANOMALY,BSTAR,MEAN_MOTION_DOT,MEAN_MOTION_DDOT,TLE_LINE0,TLE_LINE1,TLE_LINE2,SEMIMAJOR_AXIS,PERIOD,APOGEE,PERIGEE,DECAYED
52498.0,STARLINK-3925,PAYLOAD,2024-04-24 14:21:30,15.08819685,0.0001833,53.2174,230.1248,106.4716,253.6478,-0.00035771,-5.973e-05,0.0,0 STARLINK-3925,1 52498U 22049AZ  24115.59826837 -.00005973  00000-0 -35771-3 0  9998,2 52498  53.2174 230.1248 0001833 106.4716 253.6478 15.08819685109255,6917.942,95.439,541.076,538.539,0.0
52498.0,STARLINK-3925,PAYLOAD,2024-04-25 12:36:55,15.08827726,0.0001749,53.2171,225.9608,110.4563,249.6617,0.00067064,0.00010398,0.0,0 STARLINK-3925,1 52498U 22049AZ  24116.52564480  .00010398  00000-0  67064-3 0  9990,2 52498  53.2171 225.9608 0001749 110.4563 249.6617 15.08827726109553,6917.918,95.438,540.993,538.573,0.0
52498.0,STARLINK-3925,PAYLOAD,2024-04-25 14:12:18,15.08832336,0.0001689,53.217,225.6636,108.2831,251.8345,0.00069253,0.00010748,0.0,0 STARLINK-3925,1 52498U 22049AZ  24116.59188465  .00010748  00000-0  69253-3 0  9993,2 52498  53.2170 225.6636 0001689 108.2831 251.8345 15.08832336109406,6917.904,95.438,540.937,538.6,0.0
52498.0,STARLINK-3925,PAYLOAD,2024-04-26 14:03:05,15.0885683,0.0001669,53.2167,221.2091,113.9186,246.1981,0.00070613,0.00010973,0.0,0 STARLINK-3925,1 52498U 22049AZ  24117.58547976  .00010973  00000-0  70613-3 0  9991,2 52498  53.2167 221.2091 0001669 113.9186 246.1981 15.08856830109715,6917.829,95.436,540.849,538.539,0.0
52498.0,STARLINK-3925,PAYLOAD,2024-04-26 15:38:28,15.08861623,0.0001676,53.2176,220.9098,105.2576,254.8601,0.00088442,0.00013824,0.0,0 STARLINK-3925,1 52498U 22049AZ  24117.65171848  .00013824  00000-0  88442-3 0  9997,2 52498  53.2176 220.9098 0001676 105.2576 254.8601 15.08861623109567,6917.814,95.436,540.839,538.52,0.0
52498.0,STARLINK-3925,PAYLOAD,2024-04-27 12:18:28,15.08830516,0.0001863,53.2165,217.0464,122.7364,237.3808,-0.00070321,-0.0001146,0.0,0 STARLINK-3925,1 52498U 22049AZ  24118.51283359 -.00011460  00000-0 -70321-3 0  9997,2 52498  53.2165 217.0464 0001863 122.7364 237.3808 15.08830516109850,6917.909,95.438,541.063,538.486,0.0
52498.0,STARLINK-3925,PAYLOAD,2024-04-27 13:53:52,15.08830852,0.0001841,53.217,216.7469,118.77,241.3477,-0.00052007,-8.554e-05,0.0,0 STARLINK-3925,1 52498U 22049AZ  24118.57907420 -.00008554  00000-0 -52007-3 0  9996,2 52498  53.2170 216.7469 0001841 118.7700 241.3477 15.08830852109706,6917.908,95.438,541.047,538.5,0.0
52498.0,STARLINK-3925,PAYLOAD,2024-04-27 15:29:15,15.08836799,0.0001828,53.217,216.4497,116.2206,243.8974,-0.00013062,-2.366e-05,0.0,0 STARLINK-3925,1 52498U 22049AZ  24118.64531400 -.00002366  00000-0 -13062-3 0  9998,2 52498  53.2170 216.4497 0001828 116.2206 243.8974 15.08836799109719,6917.89,95.438,541.02,538.491,0.0
52498.0,STARLINK-3925,PAYLOAD,2024-04-28 12:09:16,15.08827587,0.0001689,53.2162,212.582,120.7141,239.4017,0.00027249,4.05e-05,0.0,0 STARLINK-3925,1 52498U 22049AZ  24119.50644468  .00004050  00000-0  27249-3 0  9995,2 52498  53.2162 212.5820 0001689 120.7141 239.4017 15.08827587110008,6917.918,95.438,540.952,538.615,0.0
52498.0,STARLINK-3925,PAYLOAD,2024-04-28 13:44:39,15.08827254,0.0001636,53.2154,212.2839,130.615,229.4985,8.2339e-05,1.022e-05,0.0,0 STARLINK-3925,1 52498U 22049AZ  24119.57268406  .00001022  00000-0  82339-4 0  9994,2 52498  53.2154 212.2839 0001636 130.6150 229.4985 15.08827254109853,6917.919,95.438,540.916,538.653,0.0
52498.0,STARLINK-3925,PAYLOAD,2024-04-28 15:20:03,15.08827749,0.0001559,53.2155,211.986,125.7021,234.4117,0.00012163,1.648e-05,0.0,0 STARLINK-3925,1 52498U 22049AZ  24119.63892486  .00001648  00000-0  12163-3 0  9993,2 52498  53.2155 211.9860 0001559 125.7021 234.4117 15.08827749109863,6917.918,95.438,540.861,538.704,0.0
52498.0,STARLINK-3925,PAYLOAD,2024-04-29 13:35:27,15.08838793,0.0001317,53.2153,207.8244,100.7407,259.3733,0.00034958,5.28e-05,0.0,0 STARLINK-3925,1 52498U 22049AZ  24120.56629000  .00005280  00000-0  34958-3 0  9999,2 52498  53.2153 207.8244 0001317 100.7407 259.3733 15.08838793110160,6917.884,95.438,540.66,538.838,0.0
52498.0,STARLINK-3925,PAYLOAD,2024-04-30 11:50:50,15.08852118,0.0001487,53.2163,203.661,110.4197,249.6955,0.00044463,6.798e-05,0.0,0 STARLINK-3925,1 52498U 22049AZ  24121.49364481  .00006798  00000-0  44463-3 0  9998,2 52498  53.2163 203.6610 0001487 110.4197 249.6955 15.08852118110147,6917.843,95.437,540.737,538.68,0.0
52498.0,STARLINK-3925,PAYLOAD,2024-04-30 22:58:32,15.08858449,0.000136,53.2158,201.5786,100.8673,259.2472,0.00038188,5.798e-05,0.0,0 STARLINK-3925,1 52498U 22049AZ  24121.95731938  .00005798  00000-0  38188-3 0  9990,2 52498  53.2158 201.5786 0001360 100.8673 259.2472 15.08858449110373,6917.824,95.436,540.63,538.748,0.0
52498.0,STARLINK-3925,PAYLOAD,2024-05-01 11:41:37,15.08855128,0.0001592,53.2165,199.2001,91.9704,268.147,0.00019389,2.8e-05,0.0,0 STARLINK-3925,1 52498U 22049AZ  24122.48723636  .00002800  00000-0  19389-3 0  9998,2 52498  53.2165 199.2001 0001592  91.9704 268.1470 15.08855128110295,6917.834,95.437,540.8,538.598,0.0
52498.0,STARLINK-3925,PAYLOAD,2024-05-02 11:32:23,15.08851775,0.0001432,53.2171,194.7416,84.3919,275.7237,0.00016645,2.363e-05,0.0,0 STARLINK-3925,1 52498U 22049AZ  24123.48082981  .00002363  00000-0  16645-3 0  9996,2 52498  53.2171 194.7416 0001432  84.3919 275.7237 15.08851775110603,6917.844,95.437,540.7,538.719,0.0
52498.0,STARLINK-3925,PAYLOAD,2024-05-03 11:23:11,15.08840036,0.0001449,53.2152,190.2759,90.8812,269.2346,-1.488e-05,-5.25e-06,0.0,0 STARLINK-3925,1 52498U 22049AZ  24124.47443322 -.00000525  00000-0 -14880-4 0  9996,2 52498  53.2152 190.2759 0001449  90.8812 269.2346 15.08840036110758,6917.88,95.438,540.748,538.743,0.0
52498.0,STARLINK-3925,PAYLOAD,2024-05-04 04:52:26,15.08827486,0.000144,53.215,187.0055,78.8348,281.2806,-0.0001007,-1.89e-05,0.0,0 STARLINK-3925,1 52498U 22049AZ  24125.20308526 -.00001890  00000-0 -10070-3 0  9996,2 52498  53.2150 187.0055 0001440  78.8348 281.2806 15.08827486110861,6917.919,95.438,540.78,538.787,0.0
52498.0,STARLINK-3925,PAYLOAD,2024-05-04 11:13:59,15.08821523,0.0001405,53.2148,185.8157,77.5039,282.611,-0.00015039,-2.679e-05,0.0,0 STARLINK-3925,1 52498U 22049AZ  24125.46805256 -.00002679  00000-0 -15039-3 0  9992,2 52498  53.2148 185.8157 0001405  77.5039 282.6110 15.08821523110905,6917.937,95.439,540.774,538.83,0.0
52498.0,STARLINK-3925,PAYLOAD,2024-05-05 12:40:09,15.08829023,0.0001376,53.2151,181.0591,85.1902,274.9247,6.7322e-05,7.83e-06,0.0,0 STARLINK-3925,1 52498U 22049AZ  24126.52789152  .00000783  00000-0  67322-4 0  9991,2 52498  53.2151 181.0591 0001376  85.1902 274.9247 15.08829023111066,6917.914,95.438,540.731,538.827,0.0
52498.0,STARLINK-3925,PAYLOAD,2024-05-05 20:37:05,15.088333,0.0001348,53.2148,179.5712,79.8339,280.2805,0.00012888,1.763e-05,0.0,0 STARLINK-3925,1 52498U 22049AZ  24126.85908900  .00001763  00000-0  12888-3 0  9996,2 52498  53.2148 179.5712 0001348  79.8339 280.2805 15.08833300110952,6917.901,95.438,540.698,538.833,0.0
52498.0,STARLINK-3925,PAYLOAD,2024-05-06 10:55:32,15.08841452,0.000143,53.2154,176.896,80.8314,279.284,0.00028629,4.271e-05,0.0,0 STARLINK-3925,1 52498U 22049AZ  24127.45524220  .00004271  00000-0  28629-3 0  9999,2 52498  53.2154 176.8960 0001430  80.8314 279.2840 15.08841452111204,6917.876,95.437,540.73,538.752,0.0
52498.0,STARLINK-3925,PAYLOAD,2024-05-06 20:27:51,15.08849862,0.0001491,53.2159,175.1132,81.2349,278.8812,0.00027624,4.112e-05,0.0,0 STARLINK-3925,1 52498U 22049AZ  24127.85267693  .00004112  00000-0  27624-3 0  9999,2 52498  53.2159 175.1132 0001491  81.2349 278.8812 15.08849862111108,6917.85,95.437,540.747,538.684,0.0
52498.0,STARLINK-3925,PAYLOAD,2024-05-07 12:21:43,15.08843214,0.0001437,53.2153,172.1385,86.6637,273.4519,7.9003e-05,9.7e-06,0.0,0 STARLINK-3925,1 52498U 22049AZ  24128.51508800  .00000970  00000-0  79003-4 0  9998,2 52498  53.2153 172.1385 0001437  86.6637 273.4519 15.08843214111366,6917.871,95.437,540.73,538.741,0.0
52498.0,STARLINK-3925,PAYLOAD,2024-05-08 09:01:43,15.08850226,0.0001501,53.2154,168.2718,87.6283,272.4881,2.0825e-05,4.4e-07,0.0,0 STARLINK-3925,1 52498U 22049AZ  24129.37620195  .00000044  00000-0  20825-4 0  9995,2 52498  53.2154 168.2718 0001501  87.6283 272.4881 15.08850226111332,6917.849,95.437,540.753,538.676,0.0
52498.0,STARLINK-3925,PAYLOAD,2024-05-08 20:09:25,15.08855207,0.0001475,53.2156,166.19,122.1847,237.9289,-4.654e-05,-1.029e-05,0.0,0 STARLINK-3925,1 52498U 22049AZ  24129.83987456 -.00001029  00000-0 -46540-4 0  9990,2 52498  53.2156 166.1900 0001475 122.1847 237.9289 15.08855207111562,6917.834,95.437,540.719,538.679,0.0
52498.0,STARLINK-3925,PAYLOAD,2024-05-09 05:41:44,15.08839975,0.0001461,53.2159,164.4064,93.9312,266.1847,9.4413e-05,1.215e-05,0.0,0 STARLINK-3925,1 52498U 22049AZ  24130.23732273  .00001215  00000-0  94413-4 0  9998,2 52498  53.2159 164.4064 0001461  93.9312 266.1847 15.08839975111629,6917.88,95.438,540.756,538.735,0.0
52498.0,STARLINK-3925,PAYLOAD,2024-05-09 08:52:30,15.08842631,0.0001488,53.2164,163.8115,96.4268,263.6893,6.4388e-05,7.37e-06,0.0,0 STARLINK-3925,1 52498U 22049AZ  24130.36980152  .00000737  00000-0  64388-4 0  9999,2 52498  53.2164 163.8115 0001488  96.4268 263.6893 15.08842631111482,6917.872,95.437,540.767,538.708,0.0
52498.0,STARLINK-3925,PAYLOAD,2024-05-10 07:07:55,15.08823714,0.0001504,53.2171,159.647,105.0975,255.0184,7.2104e-05,8.59e-06,0.0,0 STARLINK-3925,1 52498U 22049AZ  24131.29717414  .00000859  00000-0  72104-4 0  9991,2 52498  53.2171 159.6470 0001504 105.0975 255.0184 15.08823714111780,6917.93,95.439,540.836,538.755,0.0
52498.0,STARLINK-3925,PAYLOAD,2024-05-10 18:15:38,15.08829601,0.0001483,53.217,157.5663,100.8284,259.2875,-5.4884e-05,-1.161e-05,0.0,0 STARLINK-3925,1 52498U 22049AZ  24131.76085679 -.00001161  00000-0 -54884-4 0  9998,2 52498  53.2170 157.5663 0001483 100.8284 259.2875 15.08829601111696,6917.912,95.438,540.803,538.751,0.0
